[{"OBJECT_NAME":"OBJECT D","OBJECT_ID":"2024-092D","EPOCH":"2026-03-09T21:12:33.501312","MEAN_MOTION":15.33078357,"ECCENTRICITY":0.00083397,"INCLINATION":97.6418,"RA_OF_ASC_NODE":198.2302,"ARG_OF_PERICENTER":141.9853,"MEAN_ANOMALY":218.1979,"EPHEMERIS_TYPE":0,"CLASSIFICATION_TYPE":"U","NORAD_CAT_ID":59776,"ELEMENT_SET_NO":999,"REV_AT_EPOCH":10051,"BSTAR":0.00076511005,"MEAN_MOTION_DOT":0.00024443,"MEAN_MOTION_DDOT":0},{"OBJECT_NAME":"STARLINK-32271","OBJECT_ID":"2024-138P","EPOCH":"2026-03-09T22:49:43.147776","MEAN_MOTION":15.30185549,"ECCENTRICITY":0.00013216,"INCLINATION":53.1612,"RA_OF_ASC_NODE":308.678,"ARG_OF_PERICENTER":95.9089,"MEAN_ANOMALY":264.2063,"EPHEMERIS_TYPE":0,"CLASSIFICATION_TYPE":"U","NORAD_CAT_ID":60368,"ELEMENT_SET_NO":999,"REV_AT_EPOCH":9066,"BSTAR":8.7564367e-5,"MEAN_MOTION_DOT":2.234e-5,"MEAN_MOTION_DDOT":0}]
